[{"OBJECT_NAME":"SKYKRAFT-1A","OBJECT_ID":"2023-001AX","EPOCH":"2026-03-09T17:03:19.828224","MEAN_MOTION":15.28083228,"ECCENTRICITY":0.00112767,"INCLINATION":97.3349,"RA_OF_ASC_NODE":127.629,"ARG_OF_PERICENTER":121.5092,"MEAN_ANOMALY":238.7251,"EPHEMERIS_TYPE":0,"CLASSIFICATION_TYPE":"U","NORAD_CAT_ID":55054,"ELEMENT_SET_NO":999,"REV_AT_EPOCH":17652,"BSTAR":0.0003006872,"MEAN_MOTION_DOT":8.177e-5,"MEAN_MOTION_DDOT":0},{"OBJECT_NAME":"STARLINK-30505","OBJECT_ID":"2023-151J","EPOCH":"2026-03-08T02:51:45.258912","MEAN_MOTION":15.26785781,"ECCENTRICITY":0.00016319,"INCLINATION":43.0004,"RA_OF_ASC_NODE":345.0806,"ARG_OF_PERICENTER":252.0236,"MEAN_ANOMALY":108.0438,"EPHEMERIS_TYPE":0,"CLASSIFICATION_TYPE":"U","NORAD_CAT_ID":57972,"ELEMENT_SET_NO":999,"REV_AT_EPOCH":13552,"BSTAR":0.0013307698,"MEAN_MOTION_DOT":0.00035659,"MEAN_MOTION_DDOT":0}]
